eq_id,event,mag,hyp_lat,hyp_long,hyp_depth,network,station,sta_lat,sta_long,sta_elev,hyp_dist,component,dt,npt,PGA,PGV,PGD,disp_final1,disp_final2,method,tp,t1,t2,t3,tstart,tsearch,HP-FC,K,maxE,t1f,t2f,Km,fname_acc,fname_vel,fname_disp
32767,2022 Chihshang,6.9,23.14,121.2,7,SANTA,A330,22.8267,121.09952,0.256,36.8640744611146,Z,0.01,10501,0.222843004800477,4.57334371218166,4.14153049017907,-0.0149983145031443,-0.0197744446743182,BooreQuad,10,11.6,NaN,NaN,NaN,NaN,NaN,NaN,NaN,NaN,NaN,NaN,20220918064410_SANTA_A330_Z.acc,20220918064410_SANTA_A330_Z.vel,20220918064410_SANTA_A330_Z.disp
32767,2022 Chihshang,6.9,23.14,121.2,7,SANTA,A330,22.8267,121.09952,0.256,36.8640744611146,N,0.01,10501,0.373802243316857,8.91065579095572,6.27245499472145,-0.989617941317619,-1.14206529477088,BooreQuad,10,11.6,NaN,NaN,NaN,NaN,NaN,NaN,NaN,NaN,NaN,NaN,20220918064410_SANTA_A330_N.acc,20220918064410_SANTA_A330_N.vel,20220918064410_SANTA_A330_N.disp
32767,2022 Chihshang,6.9,23.14,121.2,7,SANTA,A330,22.8267,121.09952,0.256,36.8640744611146,E,0.01,10501,0.552600132332435,10.8271433523779,10.9048957380258,-1.36895937852239,-1.49362082844019,BooreQuad,10,11.6,NaN,NaN,NaN,NaN,NaN,NaN,NaN,NaN,NaN,NaN,20220918064410_SANTA_A330_E.acc,20220918064410_SANTA_A330_E.vel,20220918064410_SANTA_A330_E.disp
32767,2022 Chihshang,6.9,23.14,121.2,7,CWBSN,EHY,23.5038,121.3299,0.249,42.997948100537,Z,0.01,10001,2.88702342733561,24.0665877313686,10.4202890774041,0.592733059558919,0.649965759463415,BoorePieceWise,12,15.1,28.3,NaN,NaN,NaN,NaN,NaN,NaN,NaN,NaN,NaN,20220918064410_CWBSN_EHY_Z.acc,20220918064410_CWBSN_EHY_Z.vel,20220918064410_CWBSN_EHY_Z.disp
32767,2022 Chihshang,6.9,23.14,121.2,7,CWBSN,EHY,23.5038,121.3299,0.249,42.997948100537,N,0.01,10001,3.81671028140979,35.9787170707104,31.3618155422881,-20.6312312927662,-20.6437744927724,BoorePieceWise,12,15.1,28.3,NaN,NaN,NaN,NaN,NaN,NaN,NaN,NaN,NaN,20220918064410_CWBSN_EHY_N.acc,20220918064410_CWBSN_EHY_N.vel,20220918064410_CWBSN_EHY_N.disp
32767,2022 Chihshang,6.9,23.14,121.2,7,CWBSN,EHY,23.5038,121.3299,0.249,42.997948100537,E,0.01,10001,3.50754514415837,57.8890137365857,38.6570391051724,15.8963710720524,15.7094101982036,BoorePieceWise,12,15.1,28.3,NaN,NaN,NaN,NaN,NaN,NaN,NaN,NaN,NaN,20220918064410_CWBSN_EHY_E.acc,20220918064410_CWBSN_EHY_E.vel,20220918064410_CWBSN_EHY_E.disp
32767,2022 Chihshang,6.9,23.14,121.2,7,TSMIP,HWA004,23.1727,121.2483,0.244,9.30476298356361,Z,0.01,5001,2.38480077016326,55.696927961607,66.1687536864944,59.1250806480171,59.0113226814754,BoorePieceWise,7,8.8,17.9,NaN,NaN,NaN,NaN,NaN,NaN,NaN,NaN,NaN,20220918064410_TSMIP_HWA004_Z.acc,20220918064410_TSMIP_HWA004_Z.vel,20220918064410_TSMIP_HWA004_Z.disp
32767,2022 Chihshang,6.9,23.14,121.2,7,TSMIP,HWA004,23.1727,121.2483,0.244,9.30476298356361,N,0.01,5001,5.30735220835476,58.6756529760449,30.2189652042069,-1.92975607651816,-2.07851551799812,BoorePieceWise,7,8.8,17.9,NaN,NaN,NaN,NaN,NaN,NaN,NaN,NaN,NaN,20220918064410_TSMIP_HWA004_N.acc,20220918064410_TSMIP_HWA004_N.vel,20220918064410_TSMIP_HWA004_N.disp
32767,2022 Chihshang,6.9,23.14,121.2,7,TSMIP,HWA004,23.1727,121.2483,0.244,9.30476298356361,E,0.01,5001,4.52285125291943,106.47274078021,30.0293324387719,-19.7963499104781,-20.5698302284308,BoorePieceWise,7,8.8,17.9,NaN,NaN,NaN,NaN,NaN,NaN,NaN,NaN,NaN,20220918064410_TSMIP_HWA004_E.acc,20220918064410_TSMIP_HWA004_E.vel,20220918064410_TSMIP_HWA004_E.disp
32767,2022 Chihshang,6.9,23.14,121.2,7,TSMIP,HWA037,23.452,121.3936,0.097,40.4372201419875,Z,0.01,6001,4.33280486710948,50.2205912522943,32.5558408608462,-12.2982519697454,-12.2257947916555,BoorePieceWise,12,20.6,30,NaN,NaN,NaN,NaN,NaN,NaN,NaN,NaN,NaN,20220918064410_TSMIP_HWA037_Z.acc,20220918064410_TSMIP_HWA037_Z.vel,20220918064410_TSMIP_HWA037_Z.disp
32767,2022 Chihshang,6.9,23.14,121.2,7,TSMIP,HWA037,23.452,121.3936,0.097,40.4372201419875,N,0.01,6001,6.51785559284442,113.173096333644,77.511960663465,-7.89729322451937,-9.08286118681297,BoorePieceWise,12,20.6,30,NaN,NaN,NaN,NaN,NaN,NaN,NaN,NaN,NaN,20220918064410_TSMIP_HWA037_N.acc,20220918064410_TSMIP_HWA037_N.vel,20220918064410_TSMIP_HWA037_N.disp
32767,2022 Chihshang,6.9,23.14,121.2,7,TSMIP,HWA037,23.452,121.3936,0.097,40.4372201419875,E,0.01,6001,6.29409741677841,80.881756113063,39.9512025267384,-12.6618873506605,-11.828167065441,BoorePieceWise,12,20.6,30,NaN,NaN,NaN,NaN,NaN,NaN,NaN,NaN,NaN,20220918064410_TSMIP_HWA037_E.acc,20220918064410_TSMIP_HWA037_E.vel,20220918064410_TSMIP_HWA037_E.disp
32767,2022 Chihshang,6.9,23.14,121.2,7,TSMIP,HWA054,23.4305,121.3487,0.093,36.2696525755603,Z,0.01,6001,2.62431565080516,63.4435099737659,88.6250364033668,71.9525666033596,71.3210057130917,BoorePieceWise,14,18.4,28.8,NaN,NaN,NaN,NaN,NaN,NaN,NaN,NaN,NaN,20220918064410_TSMIP_HWA054_Z.acc,20220918064410_TSMIP_HWA054_Z.vel,20220918064410_TSMIP_HWA054_Z.disp
32767,2022 Chihshang,6.9,23.14,121.2,7,TSMIP,HWA054,23.4305,121.3487,0.093,36.2696525755603,N,0.01,6001,3.80425627245378,68.1699448920212,42.7004179635978,-36.6185279702945,-37.3416670478177,BoorePieceWise,14,18.4,28.8,NaN,NaN,NaN,NaN,NaN,NaN,NaN,NaN,NaN,20220918064410_TSMIP_HWA054_N.acc,20220918064410_TSMIP_HWA054_N.vel,20220918064410_TSMIP_HWA054_N.disp
32767,2022 Chihshang,6.9,23.14,121.2,7,TSMIP,HWA054,23.4305,121.3487,0.093,36.2696525755603,E,0.01,6001,4.41291059793955,91.1206442638091,82.6676963257872,15.2624085990766,15.6716726207837,BoorePieceWise,14,18.4,28.8,NaN,NaN,NaN,NaN,NaN,NaN,NaN,NaN,NaN,20220918064410_TSMIP_HWA054_E.acc,20220918064410_TSMIP_HWA054_E.vel,20220918064410_TSMIP_HWA054_E.disp
32767,2022 Chihshang,6.9,23.14,121.2,7,TSMIP,HWA073,23.3472,121.3191,0.138,26.9094010012586,Z,0.01,6001,5.21473582691055,71.4063962278578,105.187283325046,99.4691057037116,99.1473858940489,BoorePieceWise,10,14.1,27,NaN,NaN,NaN,NaN,NaN,NaN,NaN,NaN,NaN,20220918064410_TSMIP_HWA073_Z.acc,20220918064410_TSMIP_HWA073_Z.vel,20220918064410_TSMIP_HWA073_Z.disp
32767,2022 Chihshang,6.9,23.14,121.2,7,TSMIP,HWA073,23.3472,121.3191,0.138,26.9094010012586,N,0.01,6001,5.2261195665831,91.2194397830334,81.3949212098102,-72.1917863033935,-71.5622928892134,BoorePieceWise,10,14.1,27,NaN,NaN,NaN,NaN,NaN,NaN,NaN,NaN,NaN,20220918064410_TSMIP_HWA073_N.acc,20220918064410_TSMIP_HWA073_N.vel,20220918064410_TSMIP_HWA073_N.disp
32767,2022 Chihshang,6.9,23.14,121.2,7,TSMIP,HWA073,23.3472,121.3191,0.138,26.9094010012586,E,0.01,6001,4.31857559182653,61.4508850657567,43.6307977076205,-16.6548820715711,-15.7668365790553,BoorePieceWise,10,14.1,27,NaN,NaN,NaN,NaN,NaN,NaN,NaN,NaN,NaN,20220918064410_TSMIP_HWA073_E.acc,20220918064410_TSMIP_HWA073_E.vel,20220918064410_TSMIP_HWA073_E.disp
32767,2022 Chihshang,6.9,23.14,121.2,7,TSMIP,HWA075,23.494,121.3451,0.173,42.5004053066204,Z,0.01,6001,2.8879773953804,24.1155230317354,9.81016639154893,-0.289648541823875,-0.72267392245855,BoorePieceWise,12,14.2,28.3,NaN,NaN,NaN,NaN,NaN,NaN,NaN,NaN,NaN,20220918064410_TSMIP_HWA075_Z.acc,20220918064410_TSMIP_HWA075_Z.vel,20220918064410_TSMIP_HWA075_Z.disp
32767,2022 Chihshang,6.9,23.14,121.2,7,TSMIP,HWA075,23.494,121.3451,0.173,42.5004053066204,N,0.01,6001,3.8181303472572,35.9170865448252,30.8875512953505,-19.9014802300522,-19.9298588601748,BoorePieceWise,12,14.2,28.3,NaN,NaN,NaN,NaN,NaN,NaN,NaN,NaN,NaN,20220918064410_TSMIP_HWA075_N.acc,20220918064410_TSMIP_HWA075_N.vel,20220918064410_TSMIP_HWA075_N.disp
32767,2022 Chihshang,6.9,23.14,121.2,7,TSMIP,HWA075,23.494,121.3451,0.173,42.5004053066204,E,0.01,6001,3.50866315655685,58.0213524642856,39.3536014944575,16.9875788598254,16.7982960138235,BoorePieceWise,12,14.2,28.3,NaN,NaN,NaN,NaN,NaN,NaN,NaN,NaN,NaN,20220918064410_TSMIP_HWA075_E.acc,20220918064410_TSMIP_HWA075_E.vel,20220918064410_TSMIP_HWA075_E.disp
32767,2022 Chihshang,6.9,23.14,121.2,7,EEWS,S055,22.9039,121.1244,NaN,28.1550262220523,Z,0.005,20001,0.365508246266448,4.92977288153451,1.49764770110401,0.157584475208523,0.202767771229964,BooreQuad,8,9.5,NaN,NaN,NaN,NaN,NaN,NaN,NaN,NaN,NaN,NaN,20220918064411_EEWS_S055_Z.acc,20220918064411_EEWS_S055_Z.vel,20220918064411_EEWS_S055_Z.disp
32767,2022 Chihshang,6.9,23.14,121.2,7,EEWS,S055,22.9039,121.1244,NaN,28.1550262220523,N,0.005,20001,1.13328605746429,8.22991748122346,3.59794497033517,0.0461041342357354,0.229946406485304,BooreQuad,8,9.5,NaN,NaN,NaN,NaN,NaN,NaN,NaN,NaN,NaN,NaN,20220918064411_EEWS_S055_N.acc,20220918064411_EEWS_S055_N.vel,20220918064411_EEWS_S055_N.disp
32767,2022 Chihshang,6.9,23.14,121.2,7,EEWS,S055,22.9039,121.1244,NaN,28.1550262220523,E,0.005,20001,1.02402289205852,14.5792717963104,3.24047714452412,-0.0301514165474083,0.0614276482392978,BooreQuad,8,9.5,NaN,NaN,NaN,NaN,NaN,NaN,NaN,NaN,NaN,NaN,20220918064411_EEWS_S055_E.acc,20220918064411_EEWS_S055_E.vel,20220918064411_EEWS_S055_E.disp
32767,2022 Chihshang,6.9,23.14,121.2,7,TSMIP,TTN001,23.3163,121.4512,0.063,33.0337299425713,Z,0.01,6001,1.2580731893036,18.6704539319783,14.3014623551973,-4.63628148081062,-4.67301387930943,BoorePieceWise,10,12.6,34.4,NaN,NaN,NaN,NaN,NaN,NaN,NaN,NaN,NaN,20220918064410_TSMIP_TTN001_Z.acc,20220918064410_TSMIP_TTN001_Z.vel,20220918064410_TSMIP_TTN001_Z.disp
32767,2022 Chihshang,6.9,23.14,121.2,7,TSMIP,TTN001,23.3163,121.4512,0.063,33.0337299425713,N,0.01,6001,2.67394607083976,40.336976755836,49.7221107860615,9.33542751830914,9.8359333043998,BoorePieceWise,10,12.6,34.4,NaN,NaN,NaN,NaN,NaN,NaN,NaN,NaN,NaN,20220918064410_TSMIP_TTN001_N.acc,20220918064410_TSMIP_TTN001_N.vel,20220918064410_TSMIP_TTN001_N.disp
32767,2022 Chihshang,6.9,23.14,121.2,7,TSMIP,TTN001,23.3163,121.4512,0.063,33.0337299425713,E,0.01,6001,2.26726426670795,35.8284938377674,35.1211914227606,-17.0605518094255,-17.4187739457557,BoorePieceWise,10,12.6,34.4,NaN,NaN,NaN,NaN,NaN,NaN,NaN,NaN,NaN,20220918064410_TSMIP_TTN001_E.acc,20220918064410_TSMIP_TTN001_E.vel,20220918064410_TSMIP_TTN001_E.disp
32767,2022 Chihshang,6.9,23.14,121.2,7,TSMIP,TTN002,22.9725,121.304,0.046,22.5096533198748,Z,0.01,8001,0.473283790473841,6.36042724145374,3.95029656420217,-0.237956724686921,-0.356118156755449,BooreQuad,8,10.4,NaN,NaN,NaN,NaN,NaN,NaN,NaN,NaN,NaN,NaN,20220918064410_TSMIP_TTN002_Z.acc,20220918064410_TSMIP_TTN002_Z.vel,20220918064410_TSMIP_TTN002_Z.disp
32767,2022 Chihshang,6.9,23.14,121.2,7,TSMIP,TTN002,22.9725,121.304,0.046,22.5096533198748,N,0.01,8001,0.938980287682289,18.4488568612601,24.9701248760696,10.8527099357787,10.7510679173217,BooreQuad,8,10.4,NaN,NaN,NaN,NaN,NaN,NaN,NaN,NaN,NaN,NaN,20220918064410_TSMIP_TTN002_N.acc,20220918064410_TSMIP_TTN002_N.vel,20220918064410_TSMIP_TTN002_N.disp
32767,2022 Chihshang,6.9,23.14,121.2,7,TSMIP,TTN002,22.9725,121.304,0.046,22.5096533198748,E,0.01,8001,1.08979613560937,10.0958552897698,17.115509002487,-6.00009507301534,-5.97678894199601,BooreQuad,8,10.4,NaN,NaN,NaN,NaN,NaN,NaN,NaN,NaN,NaN,NaN,20220918064410_TSMIP_TTN002_E.acc,20220918064410_TSMIP_TTN002_E.vel,20220918064410_TSMIP_TTN002_E.disp
32767,2022 Chihshang,6.9,23.14,121.2,7,TSMIP,TTN014,23.0978,121.3731,0.037,19.6273292192811,Z,0.01,8001,0.811078609401013,10.5159667761996,7.5091264655335,-1.53308737242327,-1.33169441729812,BoorePieceWise,8,10,35,NaN,NaN,NaN,NaN,NaN,NaN,NaN,NaN,NaN,20220918064410_TSMIP_TTN014_Z.acc,20220918064410_TSMIP_TTN014_Z.vel,20220918064410_TSMIP_TTN014_Z.disp
32767,2022 Chihshang,6.9,23.14,121.2,7,TSMIP,TTN014,23.0978,121.3731,0.037,19.6273292192811,N,0.01,8001,1.85532134250152,20.8108589418064,35.5093174259232,22.8467323545755,22.8289838570567,BoorePieceWise,8,10,35,NaN,NaN,NaN,NaN,NaN,NaN,NaN,NaN,NaN,20220918064410_TSMIP_TTN014_N.acc,20220918064410_TSMIP_TTN014_N.vel,20220918064410_TSMIP_TTN014_N.disp
32767,2022 Chihshang,6.9,23.14,121.2,7,TSMIP,TTN014,23.0978,121.3731,0.037,19.6273292192811,E,0.01,8001,2.68679937402484,31.4361825342141,26.1410513183341,-22.0075032405774,-21.9973644751228,BoorePieceWise,8,10,35,NaN,NaN,NaN,NaN,NaN,NaN,NaN,NaN,NaN,20220918064410_TSMIP_TTN014_E.acc,20220918064410_TSMIP_TTN014_E.vel,20220918064410_TSMIP_TTN014_E.disp
32767,2022 Chihshang,6.9,23.14,121.2,7,TSMIP,TTN015,22.7522,121.1549,0.012,43.7581448249307,Z,0.01,11001,0.256581514158485,5.29820467973064,5.1682706764891,-0.0880129595657147,-0.11845630164984,BooreQuad,12,14.7,NaN,NaN,NaN,NaN,NaN,NaN,NaN,NaN,NaN,NaN,20220918064410_TSMIP_TTN015_Z.acc,20220918064410_TSMIP_TTN015_Z.vel,20220918064410_TSMIP_TTN015_Z.disp
32767,2022 Chihshang,6.9,23.14,121.2,7,TSMIP,TTN015,22.7522,121.1549,0.012,43.7581448249307,N,0.01,11001,0.442435375665674,12.6626007232394,8.4506879697499,-0.0917108451934189,0.479229312397664,BooreQuad,12,14.7,NaN,NaN,NaN,NaN,NaN,NaN,NaN,NaN,NaN,NaN,20220918064410_TSMIP_TTN015_N.acc,20220918064410_TSMIP_TTN015_N.vel,20220918064410_TSMIP_TTN015_N.disp
32767,2022 Chihshang,6.9,23.14,121.2,7,TSMIP,TTN015,22.7522,121.1549,0.012,43.7581448249307,E,0.01,11001,0.589087115050881,18.5086730831084,10.176003078759,-3.44668823854606,-3.56935566414686,BooreQuad,12,14.7,NaN,NaN,NaN,NaN,NaN,NaN,NaN,NaN,NaN,NaN,20220918064410_TSMIP_TTN015_E.acc,20220918064410_TSMIP_TTN015_E.vel,20220918064410_TSMIP_TTN015_E.disp
32767,2022 Chihshang,6.9,23.14,121.2,7,TSMIP,TTN020,23.1259,121.2147,0.278,7.32838111538213,Z,0.01,7001,2.02615856504128,23.3092775184113,36.4893812998953,23.4923786918184,23.2556821679664,BoorePieceWise,6,6.9,30.8,NaN,NaN,NaN,NaN,NaN,NaN,NaN,NaN,NaN,20220918064410_TSMIP_TTN020_Z.acc,20220918064410_TSMIP_TTN020_Z.vel,20220918064410_TSMIP_TTN020_Z.disp
32767,2022 Chihshang,6.9,23.14,121.2,7,TSMIP,TTN020,23.1259,121.2147,0.278,7.32838111538213,N,0.01,7001,3.01887926513632,42.6246611483744,75.1180692153982,-64.0614680569185,-63.6312805966298,BoorePieceWise,6,6.9,30.8,NaN,NaN,NaN,NaN,NaN,NaN,NaN,NaN,NaN,20220918064410_TSMIP_TTN020_N.acc,20220918064410_TSMIP_TTN020_N.vel,20220918064410_TSMIP_TTN020_N.disp
32767,2022 Chihshang,6.9,23.14,121.2,7,TSMIP,TTN020,23.1259,121.2147,0.278,7.32838111538213,E,0.01,7001,2.29176068311222,51.154452111915,48.9864842484498,-37.1011570481209,-37.0695927263105,BoorePieceWise,6,6.9,30.8,NaN,NaN,NaN,NaN,NaN,NaN,NaN,NaN,NaN,20220918064410_TSMIP_TTN020_E.acc,20220918064410_TSMIP_TTN020_E.vel,20220918064410_TSMIP_TTN020_E.disp
32767,2022 Chihshang,6.9,23.14,121.2,7,TSMIP,TTN021,23.102,121.1759,0.307,8.53252665872769,Z,0.01,5001,1.51760065525428,9.87475076185128,29.1350794437835,23.1294019770915,23.3754475887561,BoorePieceWise,6,7,23.2,NaN,NaN,NaN,NaN,NaN,NaN,NaN,NaN,NaN,20220918064410_TSMIP_TTN021_Z.acc,20220918064410_TSMIP_TTN021_Z.vel,20220918064410_TSMIP_TTN021_Z.disp
32767,2022 Chihshang,6.9,23.14,121.2,7,TSMIP,TTN021,23.102,121.1759,0.307,8.53252665872769,N,0.01,5001,2.85203780149626,15.5218086061724,48.619184387478,-43.7411498910463,-43.6537464416917,BoorePieceWise,6,7,23.2,NaN,NaN,NaN,NaN,NaN,NaN,NaN,NaN,NaN,20220918064410_TSMIP_TTN021_N.acc,20220918064410_TSMIP_TTN021_N.vel,20220918064410_TSMIP_TTN021_N.disp
32767,2022 Chihshang,6.9,23.14,121.2,7,TSMIP,TTN021,23.102,121.1759,0.307,8.53252665872769,E,0.01,5001,2.24916427539367,15.7122028479354,40.1032559359602,-35.1693144661771,-35.1630044986002,BoorePieceWise,6,7,23.2,NaN,NaN,NaN,NaN,NaN,NaN,NaN,NaN,NaN,20220918064410_TSMIP_TTN021_E.acc,20220918064410_TSMIP_TTN021_E.vel,20220918064410_TSMIP_TTN021_E.disp
32767,2022 Chihshang,6.9,23.14,121.2,7,TSMIP,TTN025,22.9023,121.08,0.247,29.8874196695275,Z,0.01,8001,0.532562279005416,5.55745046535473,3.90326211213388,-0.392732564803316,-0.534365892664694,BoorePieceWise,10,10.6,40,NaN,NaN,NaN,NaN,NaN,NaN,NaN,NaN,NaN,20220918064410_TSMIP_TTN025_Z.acc,20220918064410_TSMIP_TTN025_Z.vel,20220918064410_TSMIP_TTN025_Z.disp
32767,2022 Chihshang,6.9,23.14,121.2,7,TSMIP,TTN025,22.9023,121.08,0.247,29.8874196695275,N,0.01,8001,0.53053280369767,4.10918792386849,6.07686172399,-3.23092312200951,-3.13065334307436,BoorePieceWise,10,10.6,40,NaN,NaN,NaN,NaN,NaN,NaN,NaN,NaN,NaN,20220918064410_TSMIP_TTN025_N.acc,20220918064410_TSMIP_TTN025_N.vel,20220918064410_TSMIP_TTN025_N.disp
32767,2022 Chihshang,6.9,23.14,121.2,7,TSMIP,TTN025,22.9023,121.08,0.247,29.8874196695275,E,0.01,8001,0.735794709572552,7.96251171311724,9.80190510681999,-5.50890323844476,-5.4624939375394,BoorePieceWise,10,10.6,40,NaN,NaN,NaN,NaN,NaN,NaN,NaN,NaN,NaN,20220918064410_TSMIP_TTN025_E.acc,20220918064410_TSMIP_TTN025_E.vel,20220918064410_TSMIP_TTN025_E.disp
32767,2022 Chihshang,6.9,23.14,121.2,7,TSMIP,TTN026,22.8597,121.0918,0.227,33.6991205094281,Z,0.01,10001,0.312312639463374,4.30955884796624,4.15369171035332,-1.50172504972354,-1.76629433414622,BooreQuad,10,11.3,NaN,NaN,NaN,NaN,NaN,NaN,NaN,NaN,NaN,NaN,20220918064410_TSMIP_TTN026_Z.acc,20220918064410_TSMIP_TTN026_Z.vel,20220918064410_TSMIP_TTN026_Z.disp
32767,2022 Chihshang,6.9,23.14,121.2,7,TSMIP,TTN026,22.8597,121.0918,0.227,33.6991205094281,N,0.01,10001,0.497283754915212,5.10133125370852,5.76118753170658,-2.27903213948254,-2.18419843873861,BooreQuad,10,11.3,NaN,NaN,NaN,NaN,NaN,NaN,NaN,NaN,NaN,NaN,20220918064410_TSMIP_TTN026_N.acc,20220918064410_TSMIP_TTN026_N.vel,20220918064410_TSMIP_TTN026_N.disp
32767,2022 Chihshang,6.9,23.14,121.2,7,TSMIP,TTN026,22.8597,121.0918,0.227,33.6991205094281,E,0.01,10001,0.576396407563188,8.92030352360583,10.5483646174439,-2.54009645074575,-2.58050424317438,BooreQuad,10,11.3,NaN,NaN,NaN,NaN,NaN,NaN,NaN,NaN,NaN,NaN,20220918064410_TSMIP_TTN026_E.acc,20220918064410_TSMIP_TTN026_E.vel,20220918064410_TSMIP_TTN026_E.disp
32767,2022 Chihshang,6.9,23.14,121.2,7,TSMIP,TTN028,22.7767,121.0629,0.135,43.1901391756855,Z,0.01,10001,0.218651311122175,2.48551642752267,3.51942008422901,0.92853137645907,1.0080552134562,BooreQuad,12,13,NaN,NaN,NaN,NaN,NaN,NaN,NaN,NaN,NaN,NaN,20220918064410_TSMIP_TTN028_Z.acc,20220918064410_TSMIP_TTN028_Z.vel,20220918064410_TSMIP_TTN028_Z.disp
32767,2022 Chihshang,6.9,23.14,121.2,7,TSMIP,TTN028,22.7767,121.0629,0.135,43.1901391756855,N,0.01,10001,0.361219238216396,3.19335627611618,3.38588820751608,-0.984884476001893,-0.871420213666901,BooreQuad,12,13,NaN,NaN,NaN,NaN,NaN,NaN,NaN,NaN,NaN,NaN,20220918064410_TSMIP_TTN028_N.acc,20220918064410_TSMIP_TTN028_N.vel,20220918064410_TSMIP_TTN028_N.disp
32767,2022 Chihshang,6.9,23.14,121.2,7,TSMIP,TTN028,22.7767,121.0629,0.135,43.1901391756855,E,0.01,10001,0.440824041336866,6.59418493789925,8.9193210438054,-2.17528213578169,-1.90101682156124,BooreQuad,12,13,NaN,NaN,NaN,NaN,NaN,NaN,NaN,NaN,NaN,NaN,20220918064410_TSMIP_TTN028_E.acc,20220918064410_TSMIP_TTN028_E.vel,20220918064410_TSMIP_TTN028_E.disp
32767,2022 Chihshang,6.9,23.14,121.2,7,TSMIP,TTN033,23.1918,121.3957,0.011,21.9880186833069,Z,0.01,7001,0.645760606817851,9.18923412214877,10.951500799766,-8.3321722681954,-7.94013749425146,BoorePieceWise,8,10.5,34.8,NaN,NaN,NaN,NaN,NaN,NaN,NaN,NaN,NaN,20220918064410_TSMIP_TTN033_Z.acc,20220918064410_TSMIP_TTN033_Z.vel,20220918064410_TSMIP_TTN033_Z.disp
32767,2022 Chihshang,6.9,23.14,121.2,7,TSMIP,TTN033,23.1918,121.3957,0.011,21.9880186833069,N,0.01,7001,1.43505596142215,22.4373614233316,45.3577210642168,26.8234684906496,26.761930881824,BoorePieceWise,8,10.5,34.8,NaN,NaN,NaN,NaN,NaN,NaN,NaN,NaN,NaN,20220918064410_TSMIP_TTN033_N.acc,20220918064410_TSMIP_TTN033_N.vel,20220918064410_TSMIP_TTN033_N.disp
32767,2022 Chihshang,6.9,23.14,121.2,7,TSMIP,TTN033,23.1918,121.3957,0.011,21.9880186833069,E,0.01,7001,1.06245994467434,10.9902554668944,20.5711918482351,-18.4359457239384,-18.8052610971556,BoorePieceWise,8,10.5,34.8,NaN,NaN,NaN,NaN,NaN,NaN,NaN,NaN,NaN,20220918064410_TSMIP_TTN033_E.acc,20220918064410_TSMIP_TTN033_E.vel,20220918064410_TSMIP_TTN033_E.disp
32767,2022 Chihshang,6.9,23.14,121.2,7,TSMIP,TTN035,22.8784,121.2276,0.056,29.9383564425279,Z,0.01,8001,0.322476604889169,6.1379425457325,4.28894571628906,-0.49894913066149,-0.779202749726509,BooreQuad,10,12.2,NaN,NaN,NaN,NaN,NaN,NaN,NaN,NaN,NaN,NaN,20220918064410_TSMIP_TTN035_Z.acc,20220918064410_TSMIP_TTN035_Z.vel,20220918064410_TSMIP_TTN035_Z.disp
32767,2022 Chihshang,6.9,23.14,121.2,7,TSMIP,TTN035,22.8784,121.2276,0.056,29.9383564425279,N,0.01,8001,0.715180566284425,10.1867952219409,11.454639726727,3.72341719568794,4.07606692759222,BooreQuad,10,12.2,NaN,NaN,NaN,NaN,NaN,NaN,NaN,NaN,NaN,NaN,20220918064410_TSMIP_TTN035_N.acc,20220918064410_TSMIP_TTN035_N.vel,20220918064410_TSMIP_TTN035_N.disp
